YAOGAN-30 03A           
1 43028U 17075A   26068.67863850  .00004172  00000+0  31199-3 0  9991
2 43028  34.9939 156.9097 0001741 176.2032 183.8689 15.02242801452275
STARLINK-35261          
1 65595U 25207D   26068.74761889  .00003760  00000+0  26470-3 0  9995
2 65595  97.6030 138.7752 0001242  85.1834 274.9535 15.05645009 28277
